[Satellite]
VERSION=1.1
NAME=CZ-2D R/B
NICKNAME=CZ-2D R/B
TLE1=1 54215U 22142B   22332.08132516 -.00000138  00000+0  00000+0 0  9997
TLE2=2 54215  59.9052 262.8982 0023813 227.3944 132.5124 14.33514419  4315
STATUS=0
